[
    {
        "Altitude(m)": 571293.8743440398,
        "Argument of Periapsis(deg)": 0.019868973332140504,
        "Eccentricity": 0.0,
        "Inclination(deg)": 53.0,
        "Latitude(deg)": -51.73333520240814,
        "Longitude(deg)": 105.79740823147887,
        "Mean Anomaly(deg)": -78.81612139726727,
        "RAAN(deg)": 279.97043010558406,
        "Satellite Name": "Starlink Shell 1 1247",
        "Satellite Number": 1247,
        "Semi-Major Axis(m)": 6931778.249405717,
        "Time(s)": 570
    },
    {
        "Altitude(m)": 571231.2971686728,
        "Argument of Periapsis(deg)": 0.02021755181165174,
        "Eccentricity": 0.0,
        "Inclination(deg)": 53.0,
        "Latitude(deg)": -51.57359897262918,
        "Longitude(deg)": 106.72700009545692,
        "Mean Anomaly(deg)": -78.1892901937106,
        "RAAN(deg)": 279.96991133550654,
        "Satellite Name": "Starlink Shell 1 1247",
        "Satellite Number": 1247,
        "Semi-Major Axis(m)": 6931778.249405717,
        "Time(s)": 580
    },
    {
        "Altitude(m)": 571165.4831404344,
        "Argument of Periapsis(deg)": 0.020566130291162974,
        "Eccentricity": 0.0,
        "Inclination(deg)": 53.0,
        "Latitude(deg)": -51.40588624225255,
        "Longitude(deg)": 107.64965433556347,
        "Mean Anomaly(deg)": -77.56245899015377,
        "RAAN(deg)": 279.96939256542913,
        "Satellite Name": "Starlink Shell 1 1247",
        "Satellite Number": 1247,
        "Semi-Major Axis(m)": 6931778.249405717,
        "Time(s)": 590
    },
    {
        "Altitude(m)": 571096.4584560854,
        "Argument of Periapsis(deg)": 0.020914708770674213,
        "Eccentricity": 0.0,
        "Inclination(deg)": 53.0,
        "Latitude(deg)": -51.23030151393226,
        "Longitude(deg)": 108.56513154313357,
        "Mean Anomaly(deg)": -76.93562778659711,
        "RAAN(deg)": 279.9688737953516,
        "Satellite Name": "Starlink Shell 1 1247",
        "Satellite Number": 1247,
        "Semi-Major Axis(m)": 6931778.249405717,
        "Time(s)": 600
    },
    {
        "Altitude(m)": 571024.2505850147,
        "Argument of Periapsis(deg)": 0.021263287250185448,
        "Eccentricity": 0.0,
        "Inclination(deg)": 53.0,
        "Latitude(deg)": -51.04695228344969,
        "Longitude(deg)": 109.47320848753198,
        "Mean Anomaly(deg)": -76.3087965830404,
        "RAAN(deg)": 279.96835502527415,
        "Satellite Name": "Starlink Shell 1 1247",
        "Satellite Number": 1247,
        "Semi-Major Axis(m)": 6931778.249405717,
        "Time(s)": 610
    },
    {
        "Altitude(m)": 570948.8882573183,
        "Argument of Periapsis(deg)": 0.021611865729696686,
        "Eccentricity": 0.0,
        "Inclination(deg)": 53.0,
        "Latitude(deg)": -50.85594875965349,
        "Longitude(deg)": 110.37367864797723,
        "Mean Anomaly(deg)": -75.68196537948359,
        "RAAN(deg)": 279.96783625519674,
        "Satellite Name": "Starlink Shell 1 1247",
        "Satellite Number": 1247,
        "Semi-Major Axis(m)": 6931778.249405717,
        "Time(s)": 620
    },
    {
        "Altitude(m)": 570870.4014513523,
        "Argument of Periapsis(deg)": 0.02196044420920792,
        "Eccentricity": 0.0,
        "Inclination(deg)": 53.0,
        "Latitude(deg)": -50.657403587122694,
        "Longitude(deg)": 111.26635099302989,
        "Mean Anomaly(deg)": -75.05513417592692,
        "RAAN(deg)": 279.9673174851192,
        "Satellite Name": "Starlink Shell 1 1247",
        "Satellite Number": 1247,
        "Semi-Major Axis(m)": 6931778.249405717,
        "Time(s)": 630
    },
    {
        "Altitude(m)": 570788.8213807034,
        "Argument of Periapsis(deg)": 0.02230902268871916,
        "Eccentricity": 0.0,
        "Inclination(deg)": 53.0,
        "Latitude(deg)": -50.45143157285206,
        "Longitude(deg)": 112.15105121438218,
        "Mean Anomaly(deg)": -74.42830297237026,
        "RAAN(deg)": 279.9667987150417,
        "Satellite Name": "Starlink Shell 1 1247",
        "Satellite Number": 1247,
        "Semi-Major Axis(m)": 6931778.249405717,
        "Time(s)": 640
    },
    {
        "Altitude(m)": 570704.1804806317,
        "Argument of Periapsis(deg)": 0.022657601168230398,
        "Eccentricity": 0.0,
        "Inclination(deg)": 53.0,
        "Latitude(deg)": -50.238149418147316,
        "Longitude(deg)": 113.02762037658677,
        "Mean Anomaly(deg)": -73.80147176881353,
        "RAAN(deg)": 279.9662799449643,
        "Satellite Name": "Starlink Shell 1 1247",
        "Satellite Number": 1247,
        "Semi-Major Axis(m)": 6931778.249405717,
        "Time(s)": 650
    },
    {
        "Altitude(m)": 570616.5123939855,
        "Argument of Periapsis(deg)": 0.023006179647741636,
        "Eccentricity": 0.0,
        "Inclination(deg)": 53.0,
        "Latitude(deg)": -50.01767545680795,
        "Longitude(deg)": 113.89591518993606,
        "Mean Anomaly(deg)": -73.17464056525682,
        "RAAN(deg)": 279.9657611748868,
        "Satellite Name": "Starlink Shell 1 1247",
        "Satellite Number": 1247,
        "Semi-Major Axis(m)": 6931778.249405717,
        "Time(s)": 660
    },
    {
        "Altitude(m)": 570525.8519565747,
        "Argument of Periapsis(deg)": 0.023354758127252868,
        "Eccentricity": 0.0,
        "Inclination(deg)": 53.0,
        "Latitude(deg)": -49.790129400557866,
        "Longitude(deg)": 114.75580823048662,
        "Mean Anomaly(deg)": -72.54780936170006,
        "RAAN(deg)": 279.9652424048093,
        "Satellite Name": "Starlink Shell 1 1247",
        "Satellite Number": 1247,
        "Semi-Major Axis(m)": 6931778.249405717,
        "Time(s)": 670
    },
    {
        "Altitude(m)": 570432.2351820215,
        "Argument of Periapsis(deg)": 0.023703336606764106,
        "Eccentricity": 0.0,
        "Inclination(deg)": 53.0,
        "Latitude(deg)": -49.55563209256856,
        "Longitude(deg)": 115.60718659942064,
        "Mean Anomaly(deg)": -71.92097815814344,
        "RAAN(deg)": 279.96472363473185,
        "Satellite Name": "Starlink Shell 1 1247",
        "Satellite Number": 1247,
        "Semi-Major Axis(m)": 6931778.249405717,
        "Time(s)": 680
    },
    {
        "Altitude(m)": 570335.6992460823,
        "Argument of Periapsis(deg)": 0.024051915086275345,
        "Eccentricity": 0.0,
        "Inclination(deg)": 53.0,
        "Latitude(deg)": -49.31430526980492,
        "Longitude(deg)": 116.44995205258662,
        "Mean Anomaly(deg)": -71.29414695458678,
        "RAAN(deg)": 279.9642048646544,
        "Satellite Name": "Starlink Shell 1 1247",
        "Satellite Number": 1247,
        "Semi-Major Axis(m)": 6931778.249405717,
        "Time(s)": 690
    },
    {
        "Altitude(m)": 570236.2824704847,
        "Argument of Periapsis(deg)": 0.024400493565786583,
        "Eccentricity": 0.0,
        "Inclination(deg)": 53.0,
        "Latitude(deg)": -49.06627133481033,
        "Longitude(deg)": 117.2840210924215,
        "Mean Anomaly(deg)": -70.6673157510299,
        "RAAN(deg)": 279.9636860945769,
        "Satellite Name": "Starlink Shell 1 1247",
        "Satellite Number": 1247,
        "Semi-Major Axis(m)": 6931778.249405717,
        "Time(s)": 700
    },
    {
        "Altitude(m)": 570134.024306221,
        "Argument of Periapsis(deg)": 0.024749072045297815,
        "Eccentricity": 0.0,
        "Inclination(deg)": 53.0,
        "Latitude(deg)": -48.81165313743594,
        "Longitude(deg)": 118.10932351437884,
        "Mean Anomaly(deg)": -70.04048454747326,
        "RAAN(deg)": 279.96316732449947,
        "Satellite Name": "Starlink Shell 1 1247",
        "Satellite Number": 1247,
        "Semi-Major Axis(m)": 6931778.249405717,
        "Time(s)": 710
    },
    {
        "Altitude(m)": 570028.9653163682,
        "Argument of Periapsis(deg)": 0.025097650524809053,
        "Eccentricity": 0.0,
        "Inclination(deg)": 53.0,
        "Latitude(deg)": -48.55057376691609,
        "Longitude(deg)": 118.92580243847699,
        "Mean Anomaly(deg)": -69.41365334391658,
        "RAAN(deg)": 279.96264855442195,
        "Satellite Name": "Starlink Shell 1 1247",
        "Satellite Number": 1247,
        "Semi-Major Axis(m)": 6931778.249405717,
        "Time(s)": 720
    },
    {
        "Altitude(m)": 569921.14715839,
        "Argument of Periapsis(deg)": 0.02544622900432029,
        "Eccentricity": 0.0,
        "Inclination(deg)": 53.0,
        "Latitude(deg)": -48.283156354591355,
        "Longitude(deg)": 119.73341431779129,
        "Mean Anomaly(deg)": -68.78682214035982,
        "RAAN(deg)": 279.9621297843445,
        "Satellite Name": "Starlink Shell 1 1247",
        "Satellite Number": 1247,
        "Semi-Major Axis(m)": 6931778.249405717,
        "Time(s)": 730
    },
    {
        "Altitude(m)": 569810.6125659964,
        "Argument of Periapsis(deg)": 0.02579480748383153,
        "Eccentricity": 0.0,
        "Inclination(deg)": 53.0,
        "Latitude(deg)": -48.00952388748299,
        "Longitude(deg)": 120.53212741552383,
        "Mean Anomaly(deg)": -68.1599909368031,
        "RAAN(deg)": 279.961611014267,
        "Satellite Name": "Starlink Shell 1 1247",
        "Satellite Number": 1247,
        "Semi-Major Axis(m)": 6931778.249405717,
        "Time(s)": 740
    },
    {
        "Altitude(m)": 569697.4053304516,
        "Argument of Periapsis(deg)": 0.026143385963342765,
        "Eccentricity": 0.0,
        "Inclination(deg)": 53.0,
        "Latitude(deg)": -47.72979903283994,
        "Longitude(deg)": 121.32192178065716,
        "Mean Anomaly(deg)": -67.53315973324642,
        "RAAN(deg)": 279.96109224418956,
        "Satellite Name": "Starlink Shell 1 1247",
        "Satellite Number": 1247,
        "Semi-Major Axis(m)": 6931778.249405717,
        "Time(s)": 750
    }
]